1 54675U 22166AK  24046.55067152  .00000005  00000-0 -19789-4 0  9995
2 54675  87.9206  53.6743 0001796 100.7424 259.3912 13.21823987 58794
1 54676U 22166AL  24046.53175112  .00000024  00000-0  27219-4 0  9997
2 54676  87.9207  53.7024 0002105  96.3708 263.7665 13.21825755 58800
1 54677U 22166AM  24046.58064114  .00000122  00000-0  26372-3 0  9999
2 54677  87.9207  53.6939 0002428  98.2255 261.9154 13.21826078 58803
1 54678U 22166AN  24046.52228973  .00000071  00000-0  13970-3 0  9992
2 54678  87.9206  53.7142 0001772  81.5821 278.5514 13.21824817 58886
1 54679U 22166AP  24046.52387083  .00000071  00000-0  13996-3 0  9999
2 54679  87.9206  53.7015 0002054  99.3415 260.7951 13.21825440 58775
1 54680U 22166AQ  24046.48099107  .00000062  00000-0  12807-3 0  9993
2 54680  87.9052  38.4852 0002126  76.7234 283.4133 13.16591999 59850
1 54681U 22166AR  24046.53016738  .00000032  00000-0  46989-4 0  9995
2 54681  87.9209  53.6843 0002049  98.0646 262.0720 13.21824326 58899
1 55140U 23004A   24046.42140625  .00000094  00000-0  21027-3 0  9992
2 55140  87.9251 175.4645 0001027 133.7386 226.3830 13.17648503 55284
